{
    "links": {
        "self": "http://www.neowsapp.com/rest/v1/neo/3551520?api_key=iIulBulltgU6a56xZRHN4H3l9WmuAYTsLGpBGhQ2"
    },
    "id": "3551520",
    "neo_reference_id": "3551520",
    "name": "(2010 VP139)",
    "designation": "2010 VP139",
    "nasa_jpl_url": "http://ssd.jpl.nasa.gov/sbdb.cgi?sstr=3551520",
    "absolute_magnitude_h": 29.203,
    "estimated_diameter": {
        "kilometers": {
            "estimated_diameter_min": 0.0038366747,
            "estimated_diameter_max": 0.0085790654
        },
        "meters": {
            "estimated_diameter_min": 3.8366746855,
            "estimated_diameter_max": 8.5790654043
        },
        "miles": {
            "estimated_diameter_min": 0.0023839984,
            "estimated_diameter_max": 0.0053307824
        },
        "feet": {
            "estimated_diameter_min": 12.5875157752,
            "estimated_diameter_max": 28.1465409411
        }
    },
    "is_potentially_hazardous_asteroid": false,
    "close_approach_data": [
        {
            "close_approach_date": "2010-11-11",
            "close_approach_date_full": "2010-Nov-11 19:10",
            "epoch_date_close_approach": 1289502600000,
            "relative_velocity": {
                "kilometers_per_second": "8.2805165151",
                "kilometers_per_hour": "29809.859454367",
                "miles_per_hour": "18522.6873926316"
            },
            "miss_distance": {
                "astronomical": "0.0025145889",
                "lunar": "0.9781750821",
                "kilometers": "376177.143365643",
                "miles": "233745.6379581534"
            },
            "orbiting_body": "Moon"
        },
        {
            "close_approach_date": "2010-11-12",
            "close_approach_date_full": "2010-Nov-12 02:23",
            "epoch_date_close_approach": 1289528580000,
            "relative_velocity": {
                "kilometers_per_second": "9.4119326214",
                "kilometers_per_hour": "33882.9574368787",
                "miles_per_hour": "21053.5520807094"
            },
            "miss_distance": {
                "astronomical": "0.0005342694",
                "lunar": "0.2078307966",
                "kilometers": "79925.564246178",
                "miles": "49663.4426981364"
            },
            "orbiting_body": "Earth"
        }
    ],
    "orbital_data": {
        "orbit_id": "8",
        "orbit_determination_date": "2017-04-06 08:55:42",
        "first_observation_date": "2010-11-14",
        "last_observation_date": "2010-11-14",
        "data_arc_in_days": null,
        "observations_used": 12,
        "orbit_uncertainty": "9",
        "minimum_orbit_intersection": ".000483342",
        "jupiter_tisserand_invariant": "5.231",
        "epoch_osculation": "2455514.5",
        "eccentricity": ".3077410600664665",
        "semi_major_axis": "1.205627438147413",
        "inclination": "2.70256652245827",
        "ascending_node_longitude": "48.89986397140559",
        "orbital_period": "483.5240850044835",
        "perihelion_distance": ".8346063722867095",
        "perihelion_argument": "290.0398816793165",
        "aphelion_distance": "1.576648504008116",
        "perihelion_time": "2455458.745084890078",
        "mean_anomaly": "41.51141600192636",
        "mean_motion": ".7445337495373407",
        "equinox": "J2000",
        "orbit_class": {
            "orbit_class_type": "APO",
            "orbit_class_description": "Near-Earth asteroid orbits which cross the Earth’s orbit similar to that of 1862 Apollo",
            "orbit_class_range": "a (semi-major axis) > 1.0 AU; q (perihelion) < 1.017 AU"
        }
    },
    "is_sentry_object": false
}